{"fetched_at":"2026-04-03T08:55:45Z","count":9961,"tles":[{"name":"LPNTSAT-002 (IOD-2)","line1":"1 68409U 26065B   26089.91793646  .00001661  00000+0  84452-4 0  9996","line2":"2 68409  97.4122 332.0512 0012511 274.1697  85.8107 15.18186279   362","category":"Other"}]}